NORAD_CAT_ID,OBJECT_NAME,OBJECT_TYPE,EPOCH,MEAN_MOTION,ECCENTRICITY,INCLINATION,RA_OF_ASC_NODE,ARG_OF_PERICENTER,MEAN_ANOMALY,BSTAR,MEAN_MOTION_DOT,MEAN_MOTION_DDOT,TLE_LINE0,TLE_LINE1,TLE_LINE2,SEMIMAJOR_AXIS,PERIOD,APOGEE,PERIGEE,DECAYED
51721.0,STARLINK-3524,PAYLOAD,2022-08-22 12:00:00,15.08878921,0.0001587,53.2174,23.464,64.0084,98.5568,-0.0039085,-0.00062022,0.0,0 STARLINK-3524,1 51721U 22016H   22234.50001157 -.00062022  00000-0 -39085-2 0  9990,2 51721  53.2174  23.4640 0001587  64.0084  98.5568 15.08878921  1306,6917.761,95.435,540.724,538.529,0.0
51721.0,STARLINK-3524,PAYLOAD,2022-08-22 22:00:00,15.08821394,0.0001614,53.2171,21.5948,53.1125,213.9676,0.0017097999999999,0.00027014,0.0,0 STARLINK-3524,1 51721U 22016H   22234.91667824  .00027014  00000-0  17098-2 0  9994,2 51721  53.2171  21.5948 0001614  53.1125 213.9676 15.08821394 29089,6917.937,95.439,540.919,538.686,0.0
51721.0,STARLINK-3524,PAYLOAD,2022-08-23 00:00:00,15.08845721,0.0001592,53.217,21.2201,53.6109,306.3583,-0.0013149,-0.00021157,0.0,0 STARLINK-3524,1 51721U 22016H   22235.00001157 -.00021157  00000-0 -13149-2 0  9993,2 51721  53.2170  21.2201 0001592  53.6109 306.3583 15.08845721  1308,6917.863,95.437,540.8290000000002,538.627,0.0
51721.0,STARLINK-3524,PAYLOAD,2022-08-23 14:00:01,15.08850462,0.0001606,53.2174,18.6012,58.6481,231.599,-0.0015333,-0.00024615,0.0,0 STARLINK-3524,1 51721U 22016H   22235.58334491 -.00024615  00000-0 -15333-2 0  9995,2 51721  53.2174  18.6012 0001606  58.6481 231.5990 15.08850462 29181,6917.848000000001,95.437,540.8240000000002,538.602,0.0
51721.0,STARLINK-3524,PAYLOAD,2022-08-23 22:00:01,15.08837949,0.000166,53.2173,17.1054,52.5034,249.4043,0.0010062,0.00015761,0.0,0 STARLINK-3524,1 51721U 22016H   22235.91668981  .00015761  00000-0  10062-2 0  9990,2 51721  53.2173  17.1054 0001660  52.5034 249.4043 15.08837949  1303,6917.887,95.438,540.9,538.6030000000002,0.0
51721.0,STARLINK-3524,PAYLOAD,2022-08-24 08:00:01,15.08832219,0.0001551,53.2177,15.2329,60.9227,345.4253,0.0023222,0.00036856,0.0,0 STARLINK-3524,1 51721U 22016H   22236.33334491  .00036856  00000-0  23222-2 0  9993,2 51721  53.2177  15.2329 0001551  60.9227 345.4253 15.08832219 29302,6917.904,95.438,540.842,538.696,0.0
51721.0,STARLINK-3524,PAYLOAD,2022-08-24 14:00:01,15.08873173,0.000161,53.2179,14.112,56.0966,268.9477,-0.0044568,-0.00070588,0.0,0 STARLINK-3524,1 51721U 22016H   22236.58334491 -.00070588  00000-0 -44568-2 0  9998,2 51721  53.2179  14.1120 0001610  56.0966 268.9477 15.08873173  1304,6917.779,95.435,540.758,538.53,0.0
51721.0,STARLINK-3524,PAYLOAD,2022-08-24 22:00:00,15.08829284,0.0001614,53.2178,12.616,49.519,287.1308,0.0004541,6.944e-05,0.0,0 STARLINK-3524,1 51721U 22016H   22236.91667824  .00006944  00000-0  45410-3 0  9995,2 51721  53.2178  12.6160 0001614  49.5190 287.1308 15.08829284  1300,6917.913000000001,95.438,540.895,538.6619999999998,0.0
51721.0,STARLINK-3524,PAYLOAD,2022-08-25 14:00:01,15.088487,0.0001605,53.2185,9.623,54.1057,305.7125,-0.0015285,-0.00024538,0.0,0 STARLINK-3524,1 51721U 22016H   22237.58334491 -.00024538  00000-0 -15285-2 0  9997,2 51721  53.2185   9.6230 0001605  54.1057 305.7125 15.08848700  1304,6917.854,95.437,540.8290000000002,538.6080000000002,0.0
51721.0,STARLINK-3524,PAYLOAD,2022-08-25 22:00:00,15.08846362,0.0001635,53.2184,8.1269,49.5865,321.8252,-9.7013e-05,-1.832e-05,0.0,0 STARLINK-3524,1 51721U 22016H   22237.91667824 -.00001832  00000-0 -97013-4 0  9996,2 51721  53.2184   8.1269 0001635  49.5865 321.8252 15.08846362  1309,6917.861,95.437,540.857,538.595,0.0
51721.0,STARLINK-3524,PAYLOAD,2022-08-26 06:00:00,15.08821055,0.0001462,53.2187,6.629,57.7317,325.2887,0.0031265999999999,0.00049798,0.0,0 STARLINK-3524,1 51721U 22016H   22238.25001157  .00049798  00000-0  31266-2 0  9992,2 51721  53.2187   6.6290 0001462  57.7317 325.2887 15.08821055 29595,6917.938,95.439,540.815,538.7919999999998,0.0
51721.0,STARLINK-3524,PAYLOAD,2022-08-26 14:00:01,15.08833104,0.0001705,53.2171,5.1342,56.1753,338.469,-0.001521,-0.00024409,0.0,0 STARLINK-3524,1 51721U 22016H   22238.58335648 -.00024409  00000-0 -15210-2 0  9998,2 51721  53.2171   5.1342 0001705  56.1753 338.4690 15.08833104  1302,6917.901,95.438,540.946,538.587,0.0
51721.0,STARLINK-3524,PAYLOAD,2022-08-26 22:00:00,15.08833604,0.0001709,53.2167,3.6379,52.5896,353.5658,-0.00058224,-9.541e-05,0.0,0 STARLINK-3524,1 51721U 22016H   22238.91667824 -.00009541  00000-0 -58224-3 0  9992,2 51721  53.2167   3.6379 0001709  52.5896 353.5658 15.08833604  1309,6917.9,95.438,540.947,538.5830000000002,0.0
51721.0,STARLINK-3524,PAYLOAD,2022-08-27 14:00:01,15.08844945,0.0001685,53.217,0.6455,56.4817,12.8415,-0.0013618,-0.00021899,0.0,0 STARLINK-3524,1 51721U 22016H   22239.58334491 -.00021899  00000-0 -13618-2 0  9994,2 51721  53.2170   0.6455 0001685  56.4817  12.8415 15.08844945  1300,6917.865,95.437,540.896,538.565,0.0
51721.0,STARLINK-3524,PAYLOAD,2022-08-27 22:00:00,15.0885022,0.0001681,53.2167,359.149,53.559,27.3539,-0.00080958,-0.00013153,0.0,0 STARLINK-3524,1 51721U 22016H   22239.91667824 -.00013153  00000-0 -80958-3 0  9996,2 51721  53.2167 359.1490 0001681  53.5590  27.3539 15.08850220  1300,6917.849,95.437,540.877,538.5509999999998,0.0
51721.0,STARLINK-3524,PAYLOAD,2022-08-28 14:00:01,15.08864379,0.000166,53.2167,356.1567,56.1794,47.9475,-0.0012093,-0.00019495,0.0,0 STARLINK-3524,1 51721U 22016H   22240.58334491 -.00019495  00000-0 -12093-2 0  9991,2 51721  53.2167 356.1567 0001660  56.1794  47.9475 15.08864379 29941,6917.806,95.436,540.819,538.523,0.0
51721.0,STARLINK-3524,PAYLOAD,2022-08-28 22:00:00,15.08867882,0.0001598,53.2163,354.6601,52.9894,62.7464,-0.0032906,-0.00052318,0.0,0 STARLINK-3524,1 51721U 22016H   22240.91667824 -.00052318  00000-0 -32906-2 0  9993,2 51721  53.2163 354.6601 0001598  52.9894  62.7464 15.08867882  1309,6917.795,95.436,540.766,538.555,0.0
51721.0,STARLINK-3524,PAYLOAD,2022-08-29 14:00:01,15.08843736,0.0001602,53.2162,351.6679,54.5567,84.3755,-0.00073828,-0.0001202,0.0,0 STARLINK-3524,1 51721U 22016H   22241.58334491 -.00012020  00000-0 -73828-3 0  9993,2 51721  53.2162 351.6679 0001602  54.5567  84.3755 15.08843736  1306,6917.869000000002,95.437,540.842,538.626,0.0
51721.0,STARLINK-3524,PAYLOAD,2022-08-29 16:00:00,15.08831576,0.0001647,53.2163,351.2941,53.1379,178.6979,0.0012997999999999,0.00020454,0.0,0 STARLINK-3524,1 51721U 22016H   22241.66667824  .00020454  00000-0  12998-2 0  9999,2 51721  53.2163 351.2941 0001647  53.1379 178.6979 15.08831576 30104,6917.906,95.438,540.911,538.632,0.0
51721.0,STARLINK-3524,PAYLOAD,2022-08-29 22:00:00,15.08870372,0.0001629,53.2159,350.1711,53.389,97.1351,-0.0042328999999999,-0.00067084,0.0,0 STARLINK-3524,1 51721U 22016H   22241.91667824 -.00067084  00000-0 -42329-2 0  9990,2 51721  53.2159 350.1711 0001629  53.3890  97.1351 15.08870372  1308,6917.788000000001,95.436,540.779,538.526,0.0
51721.0,STARLINK-3524,PAYLOAD,2022-08-30 14:00:01,15.08826967,0.0001405,53.2159,347.1787,56.1797,117.6576,-0.00025023,-4.267e-05,0.0,0 STARLINK-3524,1 51721U 22016H   22242.58334491 -.00004267  00000-0 -25023-3 0  9992,2 51721  53.2159 347.1787 0001405  56.1797 117.6576 15.08826967  1304,6917.92,95.438,540.757,538.813,0.0
51721.0,STARLINK-3524,PAYLOAD,2022-08-30 22:00:00,15.08856644,0.0001402,53.2158,345.6817,54.8121,130.5968,-0.0033049,-0.00052526,0.0,0 STARLINK-3524,1 51721U 22016H   22242.91667824 -.00052526  00000-0 -33049-2 0  9995,2 51721  53.2158 345.6817 0001402  54.8121 130.5968 15.08856644  1307,6917.83,95.437,540.664,538.725,0.0
51721.0,STARLINK-3524,PAYLOAD,2022-08-31 14:00:01,15.08814931,0.0001561999999999,53.2159,342.6896,56.3517,152.2258,0.00014595,2.034e-05,0.0,0 STARLINK-3524,1 51721U 22016H   22243.58334491  .00002034  00000-0  14595-3 0  9993,2 51721  53.2159 342.6896 0001562  56.3517 152.2258 15.08814931 30392,6917.956999999999,95.439,540.903,538.741,0.0
51721.0,STARLINK-3524,PAYLOAD,2022-08-31 22:00:00,15.08840915,0.0001491,53.2159,341.1924,55.6662,164.4736,-0.001817,-0.0002908999999999,0.0,0 STARLINK-3524,1 51721U 22016H   22243.91667824 -.00029090  00000-0 -18170-2 0  9994,2 51721  53.2159 341.1924 0001491  55.6662 164.4736 15.08840915  1308,6917.878000000002,95.437,540.774,538.711,0.0
51721.0,STARLINK-3524,PAYLOAD,2022-09-01 14:00:01,15.08832146,0.0001629,53.2161,338.2003,54.957,188.4206,0.0006582999999999,0.00010202,0.0,0 STARLINK-3524,1 51721U 22016H   22244.58335648  .00010202  00000-0  65830-3 0  9993,2 51721  53.2161 338.2003 0001629  54.9570 188.4206 15.08832146 30542,6917.904,95.438,540.896,538.6419999999998,0.0
51721.0,STARLINK-3524,PAYLOAD,2022-09-01 22:00:00,15.088734699999998,0.000157,53.2161,336.7030000000001,55.9587,198.9401,-0.0045898999999999,-0.00072666,0.0,0 STARLINK-3524,1 51721U 22016H   22244.91667824 -.00072666  00000-0 -45899-2 0  9990,2 51721  53.2161 336.7030 0001570  55.9587 198.9401 15.08873470  1309,6917.778,95.435,540.729,538.557,0.0
51721.0,STARLINK-3524,PAYLOAD,2022-09-02 14:00:01,15.08820553,0.0001738,53.2164,333.711,56.3235,221.7604,0.00083182,0.00012968,0.0,0 STARLINK-3524,1 51721U 22016H   22245.58334491  .00012968  00000-0  83182-3 0  9990,2 51721  53.2164 333.7110 0001738  56.3235 221.7604 15.08820553  1303,6917.94,95.439,541.007,538.602,0.0
51721.0,STARLINK-3524,PAYLOAD,2022-09-02 16:00:00,15.08807248,0.000173,53.2164,333.3371,55.4716,315.5084,0.0027168,0.00043176,0.0,0 STARLINK-3524,1 51721U 22016H   22245.66667824  .00043176  00000-0  27168-2 0  9994,2 51721  53.2164 333.3371 0001730  55.4716 315.5084 15.08807248 30700,6917.981,95.44,541.0419999999998,538.649,0.0
51721.0,STARLINK-3524,PAYLOAD,2022-09-02 22:00:01,15.08848212,0.0001628,53.2163,332.2136,57.4148,232.3027,-0.0020954999999999,-0.00033491,0.0,0 STARLINK-3524,1 51721U 22016H   22245.91668981 -.00033491  00000-0 -20955-2 0  9995,2 51721  53.2163 332.2136 0001628  57.4148 232.3027 15.08848212  1306,6917.855,95.437,540.847,538.594,0.0
